[{"OBJECT_NAME":"STARLINK-32199","OBJECT_ID":"2024-133V","EPOCH":"2026-03-09T21:36:04.023648","MEAN_MOTION":15.30188919,"ECCENTRICITY":0.00012337,"INCLINATION":53.1604,"RA_OF_ASC_NODE":296.0019,"ARG_OF_PERICENTER":94.7268,"MEAN_ANOMALY":265.3873,"EPHEMERIS_TYPE":0,"CLASSIFICATION_TYPE":"U","NORAD_CAT_ID":60320,"ELEMENT_SET_NO":999,"REV_AT_EPOCH":9167,"BSTAR":4.2697301e-5,"MEAN_MOTION_DOT":9.05e-6,"MEAN_MOTION_DDOT":0},{"OBJECT_NAME":"SCS-01 D","OBJECT_ID":"2025-100D","EPOCH":"2026-03-09T18:08:45.040704","MEAN_MOTION":15.31902149,"ECCENTRICITY":0.00063457,"INCLINATION":97.373,"RA_OF_ASC_NODE":145.4097,"ARG_OF_PERICENTER":266.2302,"MEAN_ANOMALY":93.8214,"EPHEMERIS_TYPE":0,"CLASSIFICATION_TYPE":"U","NORAD_CAT_ID":63985,"ELEMENT_SET_NO":999,"REV_AT_EPOCH":4562,"BSTAR":0.0010528181,"MEAN_MOTION_DOT":0.00032471,"MEAN_MOTION_DDOT":0}]
